ORBCOMM-X               
1 21576U 91050C   26016.89331350  .00000256  00000+0  88404-4 0  9993
2 21576  98.3176  83.8634 0002470 253.7296 106.3623 14.43467687812941
ORBCOMM FM01            
1 23545U 95017A   26016.91807567  .00005041  00000+0  48395-3 0  9990
2 23545  69.9611 259.8559 0005133 310.0979  49.9727 14.93673401644388
ORBCOMM FM02            
1 23546U 95017B   26016.95347589  .00008243  00000+0  75082-3 0  9998
2 23546  69.9635 278.1687 0006353 318.4376  41.6298 14.95458288644062
ORBCOMM FM08            
1 25112U 97084A   26016.83974139  .00001171  00000+0  36023-3 0  9994
2 25112  45.0144  61.5572 0008442 255.4284 104.5632 14.46742893472300
ORBCOMM FM10            
1 25113U 97084B   26016.85500976  .00001055  00000+0  33023-3 0  9999
2 25113  45.0156  64.2684 0006508 230.6411 129.3864 14.46475271647440
ORBCOMM FM11            
1 25114U 97084C   26016.82815476  .00000854  00000+0  27658-3 0  9994
2 25114  45.0141  65.4261 0007330 230.0485 129.9723 14.46222440472396
ORBCOMM FM12            
1 25115U 97084D   26016.85665726  .00001033  00000+0  32595-3 0  9995
2 25115  45.0148  65.0171 0006390 229.9411 130.0880 14.46245142472190
ORBCOMM FM09            
1 25116U 97084E   26016.56436413  .00000862  00000+0  27943-3 0  9993
2 25116  45.0152  67.5937 0007263 216.8904 143.1449 14.46077521472353
